{"RECORDS":[{"CCSDS_OMM_VERS":55874.63,"CREATION_DATE":"2029-07-15T09:53:41.308Z","ORIGINATOR":"Schaden - Satterfield","OBJECT_NAME":"wxC#{l$.@_","OBJECT_ID":"ZiDX(5(H@F","CENTER_NAME":"\"MazgJom\\3","REF_FRAME":9,"REF_FRAME_EPOCH":"2018-12-06T17:52:59.582Z","TIME_SYSTEM":11,"MEAN_ELEMENT_THEORY":2,"COMMENT":"yOmwy9w)H*","EPOCH":"1999-04-28T01:20:32.355Z","SEMI_MAJOR_AXIS":51384.31,"MEAN_MOTION":26892.48,"ECCENTRICITY":29382.2,"INCLINATION":20026.08,"RA_OF_ASC_NODE":89148.27,"ARG_OF_PERICENTER":13329.43,"MEAN_ANOMALY":14480.13,"GM":77761.87,"MASS":48168.64,"SOLAR_RAD_AREA":26068.46,"SOLAR_RAD_COEFF":92655.78,"DRAG_AREA":11993.73,"DRAG_COEFF":87801.24,"EPHEMERIS_TYPE":4,"CLASSIFICATION_TYPE":"V<}iqYltZ{","NORAD_CAT_ID":2108558676,"ELEMENT_SET_NO":3378482620,"REV_AT_EPOCH":45121.09,"BSTAR":48862.35,"MEAN_MOTION_DOT":16541.96,"MEAN_MOTION_DDOT":52014.95,"COV_REF_FRAME":0,"CX_X":4513.75,"CY_X":42009.33,"CY_Y":84088.05,"CZ_X":41444.21,"CZ_Y":89174.8,"CZ_Z":6994.48,"CX_DOT_X":83772.99,"CX_DOT_Y":10390.14,"CX_DOT_Z":93818.58,"CX_DOT_X_DOT":16371.59,"CY_DOT_X":60584.67,"CY_DOT_Y":41596.94,"CY_DOT_Z":82738.81,"CY_DOT_X_DOT":30139.77,"CY_DOT_Y_DOT":87782.51,"CZ_DOT_X":80256.48,"CZ_DOT_Y":85483.42,"CZ_DOT_Z":41042.58,"CZ_DOT_X_DOT":51403.9,"CZ_DOT_Y_DOT":41788.82,"CZ_DOT_Z_DOT":50689.4,"USER_DEFINED_BIP_0044_TYPE":1787454008,"USER_DEFINED_OBJECT_DESIGNATOR":"84h3CXF?!;","USER_DEFINED_EARTH_MODEL":".\\V.Mq:jnt","USER_DEFINED_EPOCH_TIMESTAMP":99174.54,"USER_DEFINED_MICROSECONDS":5609.06}]}